{
  "norad_id": 49079,
  "name": "ONEWEB-0289",
  "history": [
    {
      "epoch": "2026-03-28T18:55:56.638272Z",
      "apogee_km": 1195.6553948853343,
      "perigee_km": 1191.189386294389,
      "latitude_deg": -4.4863659858700965e-05,
      "longitude_deg": -88.34545632561888,
      "height_km": 1196.286667517433,
      "semi_major_axis_km": 7571.559390589861,
      "eccentricity": 0.00029492,
      "inclination_deg": 87.9181,
      "raan_deg": 21.8448,
      "arg_perigee_deg": 89.2489,
      "mean_anomaly_deg": 270.898,
      "mean_motion_rev_day": 13.17724929
    }
  ]
}